{
  "type": "FeatureCollection",
  "features": [
    {
      "type": "Feature",
      "properties": {
        "norad_id": 38091,
        "name": "BEIDOU-2 G5 (C05)",
        "group": "gnss",
        "lat": -2.698357289659921,
        "lon": -49.30134568195043,
        "alt_km": 35734.4971543389,
        "timestamp": "2025-12-09T11:33:55.041178+00:00",
        "meta_object_name": "BEIDOU-2 G5 (C05)",
        "meta_object_id": "2012-008A",
        "meta_epoch": "2025-12-09T03:34:44.022432",
        "meta_mean_motion": 1.00274149,
        "meta_eccentricity": 0.001252,
        "meta_inclination": 3.1,
        "meta_ra_of_asc_node": 70.7096,
        "meta_arg_of_pericenter": 226.0989,
        "meta_mean_anomaly": 253.7636,
        "meta_ephemeris_type": 0,
        "meta_classification_type": "U",
        "meta_norad_cat_id": 38091,
        "meta_element_set_no": 999,
        "meta_rev_at_epoch": 5046,
        "meta_bstar": 0,
        "meta_mean_motion_dot": 5.8e-07,
        "meta_mean_motion_ddot": 0,
        "tle_line1": "1 38091U 12008A   25343.14912063  .00000058  00000+0  00000+0 0  9996",
        "tle_line2": "2 38091   3.1000  70.7096 0012520 226.0989 253.7636  1.00274149 50467"
      },
      "geometry": {
        "type": "Point",
        "coordinates": [
          -49.30134568195043,
          -2.698357289659921
        ]
      }
    },
    {
      "type": "Feature",
      "properties": {
        "norad_id": 38250,
        "name": "BEIDOU-2 M3 (C11)",
        "group": "gnss",
        "lat": -51.97863451996659,
        "lon": -168.8442075483515,
        "alt_km": 21470.335364197475,
        "timestamp": "2025-12-09T11:33:55.041190+00:00",
        "meta_object_name": "BEIDOU-2 M3 (C11)",
        "meta_object_id": "2012-018A",
        "meta_epoch": "2025-12-09T02:31:53.120352",
        "meta_mean_motion": 1.86229518,
        "meta_eccentricity": 0.0024485,
        "meta_inclination": 55.923,
        "meta_ra_of_asc_node": 311.2799,
        "meta_arg_of_pericenter": 273.6556,
        "meta_mean_anomaly": 86.0527,
        "meta_ephemeris_type": 0,
        "meta_classification_type": "U",
        "meta_norad_cat_id": 38250,
        "meta_element_set_no": 999,
        "meta_rev_at_epoch": 9240,
        "meta_bstar": 0,
        "meta_mean_motion_dot": -7.5e-07,
        "meta_mean_motion_ddot": 0,
        "tle_line1": "1 38250U 12018A   25343.10547593 -.00000075  00000+0  00000+0 0  9992",
        "tle_line2": "2 38250  55.9230 311.2799 0024485 273.6556  86.0527  1.86229518 92408"
      },
      "geometry": {
        "type": "Point",
        "coordinates": [
          -168.8442075483515,
          -51.97863451996659
        ]
      }
    },
    {
      "type": "Feature",
      "properties": {
        "norad_id": 38251,
        "name": "BEIDOU-2 M4 (C12)",
        "group": "gnss",
        "lat": -47.02922358756755,
        "lon": -96.31357535148639,
        "alt_km": 21492.722411976494,
        "timestamp": "2025-12-09T11:33:55.041201+00:00",
        "meta_object_name": "BEIDOU-2 M4 (C12)",
        "meta_object_id": "2012-018B",
        "meta_epoch": "2025-12-09T00:54:01.935360",
        "meta_mean_motion": 1.86229265,
        "meta_eccentricity": 0.0015661,
        "meta_inclination": 55.8248,
        "meta_ra_of_asc_node": 310.5114,
        "meta_arg_of_pericenter": 276.7071,
        "meta_mean_anomaly": 83.1029,
        "meta_ephemeris_type": 0,
        "meta_classification_type": "U",
        "meta_norad_cat_id": 38251,
        "meta_element_set_no": 999,
        "meta_rev_at_epoch": 9240,
        "meta_bstar": 0,
        "meta_mean_motion_dot": -7.4e-07,
        "meta_mean_motion_ddot": 0,
        "tle_line1": "1 38251U 12018B   25343.03752240 -.00000074  00000+0  00000+0 0  9991",
        "tle_line2": "2 38251  55.8248 310.5114 0015661 276.7071  83.1029  1.86229265 92406"
      },
      "geometry": {
        "type": "Point",
        "coordinates": [
          -96.31357535148639,
          -47.02922358756755
        ]
      }
    },
    {
      "type": "Feature",
      "properties": {
        "norad_id": 38652,
        "name": "SES-5 (EGNOS/PRN 136)",
        "group": "gnss",
        "lat": -0.06124410506806794,
        "lon": -103.06914422873227,
        "alt_km": 35776.887933503276,
        "timestamp": "2025-12-09T11:33:55.041215+00:00",
        "meta_object_name": "SES-5 (EGNOS/PRN 136)",
        "meta_object_id": "2012-036A",
        "meta_epoch": "2025-12-09T03:19:30.478080",
        "meta_mean_motion": 1.00272252,
        "meta_eccentricity": 0.0002139,
        "meta_inclination": 0.0588,
        "meta_ra_of_asc_node": 304.164,
        "meta_arg_of_pericenter": 315.0796,
        "meta_mean_anomaly": 233.7504,
        "meta_ephemeris_type": 0,
        "meta_classification_type": "U",
        "meta_norad_cat_id": 38652,
        "meta_element_set_no": 999,
        "meta_rev_at_epoch": 4256,
        "meta_bstar": 0,
        "meta_mean_motion_dot": 3.6e-07,
        "meta_mean_motion_ddot": 0,
        "tle_line1": "1 38652U 12036A   25343.13854720  .00000036  00000+0  00000+0 0  9990",
        "tle_line2": "2 38652   0.0588 304.1640 0002139 315.0796 233.7504  1.00272252 42563"
      },
      "geometry": {
        "type": "Point",
        "coordinates": [
          -103.06914422873227,
          -0.06124410506806794
        ]
      }
    },
    {
      "type": "Feature",
      "properties": {
        "norad_id": 38775,
        "name": "BEIDOU-2 M6 (C14)",
        "group": "gnss",
        "lat": 38.37686403227026,
        "lon": -142.5666885265833,
        "alt_km": 21549.072235038515,
        "timestamp": "2025-12-09T11:33:55.041227+00:00",
        "meta_object_name": "BEIDOU-2 M6 (C14)",
        "meta_object_id": "2012-050B",
        "meta_epoch": "2025-12-08T05:04:33.479040",
        "meta_mean_motion": 1.86230723,
        "meta_eccentricity": 0.00110356,
        "meta_inclination": 56.3747,
        "meta_ra_of_asc_node": 69.2178,
        "meta_arg_of_pericenter": 345.3738,
        "meta_mean_anomaly": 14.6151,
        "meta_ephemeris_type": 0,
        "meta_classification_type": "U",
        "meta_norad_cat_id": 38775,
        "meta_element_set_no": 999,
        "meta_rev_at_epoch": 8975,
        "meta_bstar": 0,
        "meta_mean_motion_dot": -4.4e-07,
        "meta_mean_motion_ddot": 0,
        "tle_line1": "1 38775U 12050B   25342.21149860 -.00000044  00000+0  00000+0 0  9992",
        "tle_line2": "2 38775  56.3747  69.2178 0011035 345.3738  14.6151  1.86230723 89759"
      },
      "geometry": {
        "type": "Point",
        "coordinates": [
          -142.5666885265833,
          38.37686403227026
        ]
      }
    },
    {
      "type": "Feature",
      "properties": {
        "norad_id": 38779,
        "name": "GSAT-10 (GAGAN/PRN 128)",
        "group": "gnss",
        "lat": 0.010470511884707207,
        "lon": -25.074688869983127,
        "alt_km": 35793.66656799312,
        "timestamp": "2025-12-09T11:33:55.041239+00:00",
        "meta_object_name": "GSAT-10 (GAGAN/PRN 128)",
        "meta_object_id": "2012-051B",
        "meta_epoch": "2025-12-09T03:41:43.351008",
        "meta_mean_motion": 1.00273317,
        "meta_eccentricity": 0.000217,
        "meta_inclination": 0.0164,
        "meta_ra_of_asc_node": 265.5862,
        "meta_arg_of_pericenter": 220.5597,
        "meta_mean_anomaly": 90.4212,
        "meta_ephemeris_type": 0,
        "meta_classification_type": "U",
        "meta_norad_cat_id": 38779,
        "meta_element_set_no": 999,
        "meta_rev_at_epoch": 4819,
        "meta_bstar": 0,
        "meta_mean_motion_dot": -1.63e-06,
        "meta_mean_motion_ddot": 0,
        "tle_line1": "1 38779U 12051B   25343.15397397 -.00000163  00000+0  00000+0 0  9993",
        "tle_line2": "2 38779   0.0164 265.5862 0002170 220.5597  90.4212  1.00273317 48195"
      },
      "geometry": {
        "type": "Point",
        "coordinates": [
          -25.074688869983127,
          0.010470511884707207
        ]
      }
    },
    {
      "type": "Feature",
      "properties": {
        "norad_id": 38833,
        "name": "GPS BIIF-3  (PRN 24)",
        "group": "gnss",
        "lat": 53.53312137305246,
        "lon": -118.85863038328324,
        "alt_km": 19754.606853092722,
        "timestamp": "2025-12-09T11:33:55.041251+00:00",
        "meta_object_name": "GPS BIIF-3  (PRN 24)",
        "meta_object_id": "2012-053A",
        "meta_epoch": "2025-12-08T20:42:06.969024",
        "meta_mean_motion": 2.00564932,
        "meta_eccentricity": 0.0175665,
        "meta_inclination": 53.5568,
        "meta_ra_of_asc_node": 151.3974,
        "meta_arg_of_pericenter": 63.9455,
        "meta_mean_anomaly": 297.8485,
        "meta_ephemeris_type": 0,
        "meta_classification_type": "U",
        "meta_norad_cat_id": 38833,
        "meta_element_set_no": 999,
        "meta_rev_at_epoch": 9562,
        "meta_bstar": 0,
        "meta_mean_motion_dot": 5.9e-07,
        "meta_mean_motion_ddot": 0,
        "tle_line1": "1 38833U 12053A   25342.86258066  .00000059  00000+0  00000+0 0  9995",
        "tle_line2": "2 38833  53.5568 151.3974 0175665  63.9455 297.8485  2.00564932 95627"
      },
      "geometry": {
        "type": "Point",
        "coordinates": [
          -118.85863038328324,
          53.53312137305246
        ]
      }
    }
  ]
}